TIANMU-1 22             
1 58663U 23208D   24148.56642649  .00005350  00000+0  29172-3 0  9990
2 58663  97.4081 261.5590 0006869  99.9937 260.2070 15.14770902 23055
TIANMU-1 15             
1 58700U 24004A   24148.54090288  .00004801  00000+0  26182-3 0  9999
2 58700  97.4624 330.0326 0011425 121.1478 239.0876 15.14786963 21646
TIANMU-1 16             
1 58701U 24004B   24148.52426189  .00005620  00000+0  30558-3 0  9993
2 58701  97.4550 329.9152 0011299 126.3960 233.8316 15.14820740 21644
TIANMU-1 17             
1 58702U 24004C   24148.50885315  .00005334  00000+0  29050-3 0  9999
2 58702  97.4596 330.0184 0009240 120.7489 239.4654 15.14800426 21635
TIANMU-1 18             
1 58703U 24004D   24148.49260248  .00005138  00000+0  27972-3 0  9993
2 58703  97.4611 330.0686 0008589 111.9026 248.3120 15.14841412 21632
INSAT-3DS               
1 58990U 24033A   24147.88743619 -.00000153  00000+0  00000+0 0  9995
2 58990   0.1455  91.4207 0011967 358.2667 197.7360  1.00270851   751
METEOR-M2 4             
1 59051U 24039A   24148.52162048  .00000057  00000+0  45221-4 0  9994
2 59051  98.5965 110.9253 0006979 175.1837 184.9409 14.22227557 12553
GSAT0225 (GALILEO 29)   
1 59598U 24079A   24144.57901139  .00000061  00000+0  00000+0 0  9993
2 59598  54.6765 122.2101 0021763 254.4582 285.2755  1.72327597   433
FALCON 9 R/B            
1 59599U 24079B   24147.10882806  .00000055  00000+0  00000+0 0  9998
2 59599  54.6722 122.0834 0001290 277.4122  81.2770  1.73014181   519
GSAT0227 (GALILEO 30)   
1 59600U 24079C   24143.87903954  .00000064  00000+0  00000+0 0  9999
2 59600  54.6913 122.1912 0007158 238.2576 109.5392  1.70568809   487
STARLINK-31770          
1 59601U 24080A   24146.92969113 -.00098658  00000+0 -17287-2 0  9996
2 59601  42.9985 163.9775 0001520 280.4059  79.6629 15.50061068  5460
STARLINK-31778          
1 59602U 24080B   24148.50001157  .00049645  00000+0  11886-2 0  9997
2 59602  43.0001 155.1285 0001167 305.6414  53.7610 15.40684596  5709
STARLINK-31776          
1 59603U 24080C   24148.15253925  .00002553  00000+0  49340-4 0  9996
2 59603  43.0002 156.8139 0001263 291.2681  68.8044 15.50572397  5603
STARLINK-31765          
1 59604U 24080D   24147.47184161 -.00004706  00000+0 -10551-3 0  9991
2 59604  42.9985 161.1705 0001312 280.0874  79.9834 15.40690373  4327
STARLINK-31767          
1 59605U 24080E   24148.50001157  .00055591  00000+0  13291-2 0  9999
2 59605  43.0002 155.0373 0001579 271.8979 124.8260 15.40683420  5703
STARLINK-31782          
1 59606U 24080F   24147.37877438 -.00170850  00000+0 -30352-2 0  9992
2 59606  42.9985 161.3260 0001021 328.7713  31.3086 15.49973813  4318
STARLINK-31755          
1 59607U 24080G   24148.34490362 -.00230514  00000+0 -41655-2 0  9990
2 59607  42.9990 155.6723 0004212 299.6604  60.3836 15.49705887  5685
STARLINK-31585          
1 59608U 24080H   24148.08674370  .00001054  00000+0  23785-4 0  9994
2 59608  42.9984 157.1758 0001405 263.2718  96.7983 15.50578407  5648
STARLINK-31667          
1 59609U 24080J   24148.50001157 -.00587660  00000+0 -12596-1 0  9998
2 59609  43.0000 154.7670 0001557 272.6574 235.0325 15.46173587  5708
STARLINK-31729          
1 59610U 24080K   24148.00001157  .00001266  00000+0  37570-4 0  9998
2 59610  42.9995 158.0652 0001620 304.9061 133.0704 15.40695273  5623
STARLINK-31448          
1 59611U 24080L   24147.41147976  .00005130  00000+0  12990-3 0  9995
2 59611  42.9967 161.5785 0000846 298.2739  61.8032 15.40716468  4312
STARLINK-31748          
1 59612U 24080M   24148.43755136  .00005678  00000+0  14310-3 0  9997
2 59612  43.0014 155.5091 0000877 274.7759  85.2998 15.40696196  5649
STARLINK-31746          
1 59613U 24080N   24148.19153063  .00006832  00000+0  17062-3 0  9992
2 59613  42.9996 156.2127 0000533 267.2569  92.8227 15.40708737  5666
STARLINK-31762          
1 59614U 24080P   24148.16667824 -.00002514  00000+0 -52931-4 0  9995
2 59614  42.9997 156.9855 0001824 322.7222  10.5296 15.40697193  5655
STARLINK-31761          
1 59615U 24080Q   24148.16667824 -.00003114  00000+0 -67307-4 0  9996
2 59615  42.9999 156.8954 0001434 266.9777 103.5944 15.40697439  5609
STARLINK-31768          
1 59616U 24080R   24147.91667824  .00002916  00000+0  77046-4 0  9997
2 59616  42.9995 158.4531 0001500 291.5313  81.0101 15.40694058  5697
STARLINK-31769          
1 59617U 24080S   24148.16667824 -.00003908  00000+0 -86343-4 0  9990
2 59617  43.0000 156.7733 0001449 267.3029 153.0310 15.40697859  5659
STARLINK-31784          
1 59618U 24080T   24147.43882438  .00068827  00000+0  11656-2 0  9992
2 59618  42.9989 160.9199 0002648 338.6511  21.4238 15.50652343  4327
STARLINK-31777          
1 59619U 24080U   24148.08263189  .00002761  00000+0  52868-4 0  9998
2 59619  42.9984 157.1425 0001297 272.4738  87.5973 15.50575770  5641
STARLINK-31771          
1 59620U 24080V   24147.91667824  .00003363  00000+0  87751-4 0  9993
2 59620  42.9997 158.3623 0001508 267.8715 141.9908 15.40693827  5644
STARLINK-31758          
1 59621U 24080W   24148.44652756  .00000692  00000+0  23849-4 0  9991
2 59621  43.0010 155.5817 0001186 293.6939  66.3793 15.40666413  5647
STARLINK-31774          
1 59622U 24080X   24147.46960186  .00005763  00000+0  14513-3 0  9993
2 59622  42.9989 161.1490 0001400 264.7461  95.3236 15.40695912  4323
STARLINK-31763          
1 59623U 24080Y   24148.50001157 -.00392767  00000+0 -97981-2 0  9998
2 59623  43.0002 154.7620 0001633 276.7514 231.8002 15.40970676  5709
SZ-17 MODULE            
1 59624U 23164C   24148.22053834  .00030644  00000+0  31800-3 0  9999
2 59624  41.4762 211.3312 0003931 114.8528 245.2721 15.63971261  4255
LEGION 1                
1 59625U 24081A   24148.17344028  .00006688  00000+0  34747-3 0  9995
2 59625  97.5759 219.2708 0004995  91.4222 268.7583 15.16414664  3692
LEGION 2                
1 59626U 24081B   24148.16973225  .00006843  00000+0  35314-3 0  9996
2 59626  97.5759 219.2755 0003945  89.4601 270.7083 15.16649817  3695
STARLINK-31749          
1 59631U 24082A   24148.50001157 -.00354684  00000+0 -58829-2 0  9993
2 59631  42.9993 248.4919 0001183 278.7031   8.3314 15.52560806  4584
STARLINK-31781          
1 59632U 24082B   24148.50001157 -.00226665  00000+0 -70694-3 0  9996
2 59632  42.9983 245.3841 0001620 272.6679 175.0176 15.91032866  4874
STARLINK-31541          
1 59633U 24082C   24148.50001157 -.00383179  00000+0 -63793-2 0  9992
2 59633  42.9993 248.4867 0001184 277.6653  11.2940 15.52558442  5062
STARLINK-31797          
1 59634U 24082D   24148.50001157 -.00380753  00000+0 -63398-2 0  9999
2 59634  42.9993 248.4720 0001182 276.2402  18.4936 15.52546074  4854
STARLINK-31798          
1 59635U 24082E   24148.50001157 -.00071157  00000+0 -11297-2 0  9996
2 59635  42.9994 248.4769 0001392 281.1834  11.5932 15.52673583  4841
STARLINK-31802          
1 59636U 24082F   24148.50001157 -.00317747  00000+0 -52503-2 0  9990
2 59636  42.9992 248.4527 0001214 279.3965  23.0332 15.52534305  4850
STARLINK-31791          
1 59637U 24082G   24148.50001157 -.00382323  00000+0 -63680-2 0  9991
2 59637  42.9993 248.4672 0001191 276.0444  20.6142 15.52542643  4859
STARLINK-31727          
1 59638U 24082H   24148.50001157 -.00291687  00000+0 -48015-2 0  9999
2 59638  42.9992 248.4625 0001283 281.0886  17.4901 15.52545324  4907
STARLINK-31807          
1 59639U 24082J   24148.50001157 -.00336089  00000+0 -55679-2 0  9990
2 59639  42.9992 248.4476 0001170 277.3927  26.9632 15.52527556  4858
STARLINK-31806          
1 59640U 24082K   24148.50001157 -.00383885  00000+0 -63971-2 0  9992
2 59640  42.9994 248.4573 0001175 274.9154  25.5930 15.52534895  4850
STARLINK-31804          
1 59641U 24082L   24148.50001157 -.00350347  00000+0 -58156-2 0  9999
2 59641  42.9993 248.4427 0001173 275.6907  30.5904 15.52523554  4857
STARLINK-31660          
1 59642U 24082M   24148.00444527  .00004204  00000+0  31952-4 0  9990
2 59642  42.9982 250.5847 0002640 213.8809 146.1891 15.73902452  4985
STARLINK-31800          
1 59643U 24082N   24148.16667824  .00229232  00000+0  16526-2 0  9993
2 59643  42.9981 250.0448 0003164 344.4636  39.6548 15.72075863  4901
STARLINK-31789          
1 59644U 24082P   24148.50001157 -.00408882  00000+0 -68411-2 0  9995
2 59644  42.9994 248.4281 0001232 271.5067  40.5511 15.52511821  5059
STARLINK-31795          
1 59645U 24082Q   24148.50001157 -.00291551  00000+0 -16081-2 0  9995
2 59645  42.9990 247.1568 0001602 273.9920 190.2325 15.79469571  4862
STARLINK-31796          
1 59646U 24082R   24148.50001157 -.00321164  00000+0 -53145-2 0  9992
2 59646  42.9992 248.4181 0001175 276.8207  39.0821 15.52506395  5011
STARLINK-31801          
1 59647U 24082S   24148.50001157 -.00463891  00000+0 -78209-2 0  9995
2 59647  42.9993 248.4035 0001326 270.6412  51.0403 15.52494137  4906
STARLINK-31790          
1 59648U 24082T   24147.27621200  .00689341  21587-3  14265-2 0  9993
2 59648  42.9950 253.6591 0002346 278.2768  81.7844 15.98361697  4684
STARLINK-31803          
1 59649U 24082U   24148.50001157 -.00412554  00000+0 -69066-2 0  9998
2 59649  42.9993 248.4231 0001239 271.1616  42.8202 15.52508473  4905
STARLINK-31787          
1 59650U 24082V   24148.50001157 -.00465737  00000+0 -78548-2 0  9996
2 59650  42.9992 248.3990 0001327 270.4163  53.1896 15.52490891  5059
STARLINK-31277          
1 59651U 24082W   24148.50001157 -.00388478  00000+0 -64851-2 0  9995
2 59651  42.9994 248.4136 0001225 273.1691  44.6609 15.52502140  5056
STARLINK-31799          
1 59652U 24082X   24148.50001157 -.00141295  00000+0 -22791-2 0  9997
2 59652  42.9993 248.3888 0001235 275.6957  51.7361 15.52548512  4902
